NORAD_CAT_ID,OBJECT_NAME,OBJECT_TYPE,EPOCH,MEAN_MOTION,ECCENTRICITY,INCLINATION,RA_OF_ASC_NODE,ARG_OF_PERICENTER,MEAN_ANOMALY,BSTAR,MEAN_MOTION_DOT,MEAN_MOTION_DDOT,TLE_LINE0,TLE_LINE1,TLE_LINE2,SEMIMAJOR_AXIS,PERIOD,APOGEE,PERIGEE,DECAYED
53856.0,STARLINK-4795,PAYLOAD,2022-10-15 14:00:01,15.73238392,0.0001217,53.216,127.4118,112.5538,144.2874,-0.00017955,-0.00025783,0.0,0 STARLINK-4795,1 53856U 22114AQ  22288.58334491 -.00025783  00000-0 -17955-3 0  9993,2 53856  53.2160 127.4118 0001217 112.5538 144.2874 15.73238392  1303,6727.786,91.531,350.469,348.832,0.0
53856.0,STARLINK-4795,PAYLOAD,2022-10-15 22:00:01,15.73205246,0.0001343,53.2174,125.7683,125.6183,220.1987,-1.3352e-05,-2.494e-05,0.0,0 STARLINK-4795,1 53856U 22114AQ  22288.91668981 -.00002494  00000-0 -13352-4 0  9996,2 53856  53.2174 125.7683 0001343 125.6183 220.1987 15.73205246  4806,6727.88,91.533,350.649,348.842,0.0
53856.0,STARLINK-4795,PAYLOAD,2022-10-16 14:00:01,15.731479,0.0001425,53.2162,122.4634,104.858,58.7742,9.6886e-05,0.00012968,0.0,0 STARLINK-4795,1 53856U 22114AQ  22289.58334491  .00012968  00000-0  96886-4 0  9994,2 53856  53.2162 122.4634 0001425 104.8580  58.7742 15.73147900  4912,6728.044,91.536,350.867,348.95,0.0
53856.0,STARLINK-4795,PAYLOAD,2022-10-16 22:00:00,15.73134568,0.0001412,53.2164,120.8161,91.0927,161.4129,0.00070133,0.00098693,0.0,0 STARLINK-4795,1 53856U 22114AQ  22289.91667824  .00098693  00000-0  70133-3 0  9995,2 53856  53.2164 120.8161 0001412  91.0927 161.4129 15.73134568  1306,6728.081999999999,91.537,350.897,348.997,0.0
53856.0,STARLINK-4795,PAYLOAD,2022-10-17 06:00:00,15.73230971,0.0001210999999999,53.2166,119.1656,98.212,243.179,-0.00012079,-0.00017559,0.0,0 STARLINK-4795,1 53856U 22114AQ  22290.25001157 -.00017559  00000-0 -12079-3 0  9994,2 53856  53.2166 119.1656 0001211  98.2120 243.1790 15.73230971  5018,6727.807,91.531,350.487,348.857,0.0
53856.0,STARLINK-4795,PAYLOAD,2022-10-17 14:00:01,15.7322313,0.0001131,53.2163,117.5157,105.8413,324.5356,0.00033886,0.00047251,0.0,0 STARLINK-4795,1 53856U 22114AQ  22290.58334491  .00047251  00000-0  33886-3 0  9999,2 53856  53.2163 117.5157 0001131 105.8413 324.5356 15.73223130  5060,6727.829000000002,91.532,350.455,348.93300000000005,0.0
53856.0,STARLINK-4795,PAYLOAD,2022-10-17 22:00:00,15.73238645,9.09e-05,53.2159,115.8679,85.4065,73.9471,-0.00039246,-0.00055426,0.0,0 STARLINK-4795,1 53856U 22114AQ  22290.91667824 -.00055426  00000-0 -39246-3 0  9996,2 53856  53.2159 115.8679 0000909  85.4065  73.9471 15.73238645  1306,6727.785,91.531,350.26199999999994,349.038,0.0
53856.0,STARLINK-4795,PAYLOAD,2022-10-18 14:00:01,15.73145767,0.000118,53.2161,112.567,95.7447,241.4477,0.00030745,0.00042647,0.0,0 STARLINK-4795,1 53856U 22114AQ  22291.58334491  .00042647  00000-0  30745-3 0  9995,2 53856  53.2161 112.5670 0001180  95.7447 241.4477 15.73145767  1304,6728.05,91.536,350.709,349.121,0.0
53856.0,STARLINK-4795,PAYLOAD,2022-10-18 22:00:00,15.73202239,0.0001647,53.2176,110.9223,92.1385,334.0226,2.7521e-05,3.244e-05,0.0,0 STARLINK-4795,1 53856U 22114AQ  22291.91667824  .00003244  00000-0  27521-4 0  9990,2 53856  53.2176 110.9223 0001647  92.1385 334.0226 15.73202239  5275,6727.889,91.533,350.862,348.646,0.0
53856.0,STARLINK-4795,PAYLOAD,2022-10-19 08:00:01,15.73162479,0.0001247,53.2159,108.8555,87.0001,180.2858,0.00070267,0.00099004,0.0,0 STARLINK-4795,1 53856U 22114AQ  22292.33334491  .00099004  00000-0  70267-3 0  9991,2 53856  53.2159 108.8555 0001247  87.0001 180.2858 15.73162479  5345,6728.002,91.535,350.706,349.028,0.0
53856.0,STARLINK-4795,PAYLOAD,2022-10-19 14:00:01,15.73236324,0.0001272,53.2159,107.619,88.2218,155.7404,0.00018424,0.00025355,0.0,0 STARLINK-4795,1 53856U 22114AQ  22292.58334491  .00025355  00000-0  18424-3 0  9993,2 53856  53.2159 107.6190 0001272  88.2218 155.7404 15.73236324  1305,6727.792,91.531,350.51199999999994,348.801,0.0
53856.0,STARLINK-4795,PAYLOAD,2022-10-19 22:00:00,15.73227654,0.0001236,53.2154,105.9711,73.7801,259.1722,1.0388e-05,8.400000000000001e-06,0.0,0 STARLINK-4795,1 53856U 22114AQ  22292.91667824  .00000840  00000-0  10388-4 0  9993,2 53856  53.2154 105.9711 0001236  73.7801 259.1722 15.73227654  1305,6727.816,91.532,350.51300000000015,348.85,0.0
53856.0,STARLINK-4795,PAYLOAD,2022-10-20 14:00:01,15.732073000000002,0.0001405,53.2156,102.6701,82.91,67.9285,-0.00029127,-0.00041311,0.0,0 STARLINK-4795,1 53856U 22114AQ  22293.58334491 -.00041311  00000-0 -29127-3 0  9998,2 53856  53.2156 102.6701 0001405  82.9100  67.9285 15.73207300  5547,6727.874,91.533,350.685,348.7940000000001,0.0
53856.0,STARLINK-4795,PAYLOAD,2022-10-20 22:00:00,15.73144168,0.0001386999999999,53.2157,101.0227,68.0608,171.7062,0.00017217,0.00023553,0.0,0 STARLINK-4795,1 53856U 22114AQ  22293.91667824  .00023553  00000-0  17217-3 0  9997,2 53856  53.2157 101.0227 0001387  68.0608 171.7062 15.73144168  1300,6728.054,91.536,350.853,348.986,0.0
53856.0,STARLINK-4795,PAYLOAD,2022-10-21 06:00:00,15.73151311,0.0001161999999999,53.2161,99.3712,74.8853,253.7771,0.0005369,0.0007525,0.0,0 STARLINK-4795,1 53856U 22114AQ  22294.25001157  .00075250  00000-0  53690-3 0  9992,2 53856  53.2161  99.3712 0001162  74.8853 253.7771 15.73151311  5648,6728.034000000002,91.536,350.681,349.117,0.0
53856.0,STARLINK-4795,PAYLOAD,2022-10-21 14:00:01,15.73247535,0.0001171999999999,53.2159,97.7222,72.6948,344.9026,0.00019368,0.00026703,0.0,0 STARLINK-4795,1 53856U 22114AQ  22294.58334491  .00026703  00000-0  19368-3 0  9991,2 53856  53.2159  97.7222 0001172  72.6948 344.9026 15.73247535  5690,6727.76,91.53,350.413,348.836,0.0
53856.0,STARLINK-4795,PAYLOAD,2022-10-21 22:00:00,15.73251223,0.0001223,53.2147,96.0736,57.4193,89.1593,-0.00025241,-0.0003597,0.0,0 STARLINK-4795,1 53856U 22114AQ  22294.91667824 -.00035970  00000-0 -25241-3 0  9992,2 53856  53.2147  96.0736 0001223  57.4193  89.1593 15.73251223  1309,6727.749,91.53,350.43699999999984,348.791,0.0
53856.0,STARLINK-4795,PAYLOAD,2022-10-22 14:00:01,15.73171015,0.0001406,53.215,92.7727,68.6733,255.7977,0.00028575,0.00039623,0.0,0 STARLINK-4795,1 53856U 22114AQ  22295.58334491  .00039623  00000-0  28575-3 0  9997,2 53856  53.2150  92.7727 0001406  68.6733 255.7977 15.73171015  1300,6727.978,91.535,350.789,348.897,0.0
53856.0,STARLINK-4795,PAYLOAD,2022-10-22 22:00:00,15.73269274,0.000147,53.2148,91.1245,52.9286,0.4596,0.00061153,0.00086348,0.0,0 STARLINK-4795,1 53856U 22114AQ  22295.91667824  .00086348  00000-0  61153-3 0  9998,2 53856  53.2148  91.1245 0001470  52.9286   0.4596 15.73269274  1302,6727.698,91.529,350.552,348.574,0.0
53856.0,STARLINK-4795,PAYLOAD,2022-10-23 00:00:02,15.73356818,0.0001391,53.2148,90.7116,54.792,110.8957,-0.00058325,-0.00082229,0.0,0 STARLINK-4795,1 53856U 22114AQ  22296.00002315 -.00082229  00000-0 -58325-3 0  9990,2 53856  53.2148  90.7116 0001391  54.7920 110.8957 15.73356818  5921,6727.448,91.524,350.249,348.37699999999984,0.0
53856.0,STARLINK-4795,PAYLOAD,2022-10-23 14:00:01,15.73274602,0.0001193999999999,53.2149,87.8238,51.2362,180.2162,-0.00055356,-0.00077839,0.0,0 STARLINK-4795,1 53856U 22114AQ  22296.58334491 -.00077839  00000-0 -55356-3 0  9998,2 53856  53.2149  87.8238 0001194  51.2362 180.2162 15.73274602  1304,6727.682,91.529,350.351,348.744,0.0
53856.0,STARLINK-4795,PAYLOAD,2022-10-23 22:00:00,15.73237764,0.0001375,53.2143,86.1751,42.7355,277.6977,-0.00075645,-0.00105631,0.0,0 STARLINK-4795,1 53856U 22114AQ  22296.91667824 -.00105631  00000-0 -75645-3 0  9999,2 53856  53.2143  86.1751 0001375  42.7355 277.6977 15.73237764  1301,6727.788000000001,91.531,350.57800000000015,348.727,0.0
53856.0,STARLINK-4795,PAYLOAD,2022-10-24 06:00:00,15.731315900000002,0.0001242999999999,53.2146,84.5234,54.8579,354.5229,-0.00044311,-0.00062168,0.0,0 STARLINK-4795,1 53856U 22114AQ  22297.25001157 -.00062168  00000-0 -44311-3 0  9991,2 53856  53.2146  84.5234 0001243  54.8579 354.5229 15.73131590  6117,6728.09,91.537,350.792,349.119,0.0
53856.0,STARLINK-4795,PAYLOAD,2022-10-24 14:00:01,15.73087497,0.0001322,53.2149,82.875,48.0218,90.1689,0.0002685,0.00037048,0.0,0 STARLINK-4795,1 53856U 22114AQ  22297.58334491  .00037048  00000-0  26850-3 0  9992,2 53856  53.2149  82.8750 0001322  48.0218  90.1689 15.73087497  1302,6728.215999999999,91.54,350.97,349.191,0.0
53856.0,STARLINK-4795,PAYLOAD,2022-10-24 22:00:00,15.73075289,0.0001513,53.2148,81.2266,40.3739,186.6215,0.0014662,0.00209238,0.0,0 STARLINK-4795,1 53856U 22114AQ  22297.91667824  .00209238  00000-0  14662-2 0  9997,2 53856  53.2148  81.2266 0001513  40.3739 186.6215 15.73075289  1303,6728.251,91.54,351.134,349.098,0.0
53856.0,STARLINK-4795,PAYLOAD,2022-10-25 00:00:00,15.73136048,0.0001521999999999,53.215,80.8138,41.4356,297.754,0.00096344,0.00136435,0.0,0 STARLINK-4795,1 53856U 22114AQ  22298.00001157  .00136435  00000-0  96344-3 0  9995,2 53856  53.2150  80.8138 0001522  41.4356 297.7540 15.73136048  6239,6728.078,91.537,350.967,348.918,0.0
53856.0,STARLINK-4795,PAYLOAD,2022-10-25 14:00:01,15.732357,0.0001438,53.2152,77.9269,37.6564,7.14,-0.00035335,-0.00049993,0.0,0 STARLINK-4795,1 53856U 22114AQ  22298.58334491 -.00049993  00000-0 -35335-3 0  9995,2 53856  53.2152  77.9269 0001438  37.6564   7.1400 15.73235700  6320,6727.793000000002,91.531,350.626,348.691,0.0
53856.0,STARLINK-4795,PAYLOAD,2022-10-25 22:00:01,15.73176349,0.0001506,53.2146,76.278,30.4208,103.3975,0.00044271,0.00061908,0.0,0 STARLINK-4795,1 53856U 22114AQ  22298.91668981  .00061908  00000-0  44271-3 0  9993,2 53856  53.2146  76.2780 0001506  30.4208 103.3975 15.73176349  1307,6727.9630000000025,91.535,350.841,348.814,0.0
53856.0,STARLINK-4795,PAYLOAD,2022-10-26 06:00:00,15.73214911,0.0001341999999999,53.2149,74.6265,36.5216,186.1689,9.1422e-05,0.00012237,0.0,0 STARLINK-4795,1 53856U 22114AQ  22299.25001157  .00012237  00000-0  91422-4 0  9999,2 53856  53.2149  74.6265 0001342  36.5216 186.1689 15.73214911  6432,6727.853,91.532,350.621,348.815,0.0
